{"type": "FeatureCollection", "features": [ {"type": "Feature", "properties": {"norad_id": 39122, "name": "EUTELSAT 117 WEST A", "group": "eutelsat", "lat": 0.024477414783255838, "lon": 60.25310986555835, "alt_km": 35798.92394780352, "timestamp": "2025-12-03T06:58:42.912613+00:00", "meta": {"OBJECT_NAME": "EUTELSAT 117 WEST A", "OBJECT_ID": "2013-012A", "EPOCH": "2025-12-02T14:56:31.247232", "MEAN_MOTION": 1.00271807, "ECCENTRICITY": 0.0003109, "INCLINATION": 0.0352, "RA_OF_ASC_NODE": 53.2537, "ARG_OF_PERICENTER": 199.2772, "MEAN_ANOMALY": 286.5331, "EPHEMERIS_TYPE": 0, "CLASSIFICATION_TYPE": "U", "NORAD_CAT_ID": 39122, "ELEMENT_SET_NO": 999, "REV_AT_EPOCH": 4646, "BSTAR": 0, "MEAN_MOTION_DOT": 7e-08, "MEAN_MOTION_DDOT": 0}, "tle": {"line1": "1 39122U 13012A   25336.62258388  .00000007  00000+0  00000+0 0  9990", "line2": "2 39122   0.0352  53.2537 0003109 199.2772 286.5331  1.00271807 46468"}}, "geometry": {"type": "Point", "coordinates": [60.25310986555835, 0.024477414783255838]}}, {"type": "Feature", "properties": {"norad_id": 39163, "name": "EUTELSAT 7B", "group": "eutelsat", "lat": -0.023168072259287294, "lon": -175.99127166393913, "alt_km": 35796.95658249449, "timestamp": "2025-12-03T06:58:42.912625+00:00", "meta": {"OBJECT_NAME": "EUTELSAT 7B", "OBJECT_ID": "2013-022A", "EPOCH": "2025-12-02T15:31:41.392704", "MEAN_MOTION": 1.00272361, "ECCENTRICITY": 0.0004353, "INCLINATION": 0.0676, "RA_OF_ASC_NODE": 357.8305, "ARG_OF_PERICENTER": 313.6801, "MEAN_ANOMALY": 0.1713, "EPHEMERIS_TYPE": 0, "CLASSIFICATION_TYPE": "U", "NORAD_CAT_ID": 39163, "ELEMENT_SET_NO": 999, "REV_AT_EPOCH": 4598, "BSTAR": 0, "MEAN_MOTION_DOT": 6.8e-07, "MEAN_MOTION_DDOT": 0}, "tle": {"line1": "1 39163U 13022A   25336.64700686  .00000068  00000+0  00000+0 0  9998", "line2": "2 39163   0.0676 357.8305 0004353 313.6801   0.1713  1.00272361 45981"}}, "geometry": {"type": "Point", "coordinates": [-175.99127166393913, -0.023168072259287294]}}, {"type": "Feature", "properties": {"norad_id": 39612, "name": "EXPRESS-AT1", "group": "eutelsat", "lat": -0.034474843014407175, "lon": -126.95620362103408, "alt_km": 35786.36044784127, "timestamp": "2025-12-03T06:58:42.912637+00:00", "meta": {"OBJECT_NAME": "EXPRESS-AT1", "OBJECT_ID": "2014-010A", "EPOCH": "2025-12-02T20:49:38.785728", "MEAN_MOTION": 1.00269797, "ECCENTRICITY": 3.31e-05, "INCLINATION": 0.0152, "RA_OF_ASC_NODE": 289.8493, "ARG_OF_PERICENTER": 223.4383, "MEAN_ANOMALY": 287.0974, "EPHEMERIS_TYPE": 0, "CLASSIFICATION_TYPE": "U", "NORAD_CAT_ID": 39612, "ELEMENT_SET_NO": 999, "REV_AT_EPOCH": 4284, "BSTAR": 0, "MEAN_MOTION_DOT": 9.8e-07, "MEAN_MOTION_DDOT": 0}, "tle": {"line1": "1 39612U 14010A   25336.86781002  .00000098  00000+0  00000+0 0  9993", "line2": "2 39612   0.0152 289.8493 0000331 223.4383 287.0974  1.00269797 42842"}}, "geometry": {"type": "Point", "coordinates": [-126.95620362103408, -0.034474843014407175]}}, {"type": "Feature", "properties": {"norad_id": 39613, "name": "EXPRESS-AT2", "group": "eutelsat", "lat": 0.004891703212190114, "lon": -43.091020272275316, "alt_km": 35781.62472805744, "timestamp": "2025-12-03T06:58:42.912649+00:00", "meta": {"OBJECT_NAME": "EXPRESS-AT2", "OBJECT_ID": "2014-010B", "EPOCH": "2025-12-02T18:39:51.468192", "MEAN_MOTION": 1.00272051, "ECCENTRICITY": 0.0001224, "INCLINATION": 0.0174, "RA_OF_ASC_NODE": 307.1103, "ARG_OF_PERICENTER": 339.3359, "MEAN_ANOMALY": 205.2613, "EPHEMERIS_TYPE": 0, "CLASSIFICATION_TYPE": "U", "NORAD_CAT_ID": 39613, "ELEMENT_SET_NO": 999, "REV_AT_EPOCH": 4253, "BSTAR": 0, "MEAN_MOTION_DOT": -2.61e-06, "MEAN_MOTION_DDOT": 0}, "tle": {"line1": "1 39613U 14010B   25336.77767903 -.00000261  00000+0  00000+0 0  9991", "line2": "2 39613   0.0174 307.1103 0001224 339.3359 205.2613  1.00272051 42536"}}, "geometry": {"type": "Point", "coordinates": [-43.091020272275316, 0.004891703212190114]}}, {"type": "Feature", "properties": {"norad_id": 39773, "name": "EUTELSAT 3B", "group": "eutelsat", "lat": -0.014220355657285539, "lon": -179.90935540598014, "alt_km": 35772.70595054928, "timestamp": "2025-12-03T06:58:42.912660+00:00", "meta": {"OBJECT_NAME": "EUTELSAT 3B", "OBJECT_ID": "2014-030A", "EPOCH": "2025-12-02T18:48:38.705184", "MEAN_MOTION": 1.0027068, "ECCENTRICITY": 0.0004768, "INCLINATION": 0.0632, "RA_OF_ASC_NODE": 0.3895, "ARG_OF_PERICENTER": 226.9231, "MEAN_ANOMALY": 129.829, "EPHEMERIS_TYPE": 0, "CLASSIFICATION_TYPE": "U", "NORAD_CAT_ID": 39773, "ELEMENT_SET_NO": 999, "REV_AT_EPOCH": 4209, "BSTAR": 0, "MEAN_MOTION_DOT": 4e-07, "MEAN_MOTION_DDOT": 0}, "tle": {"line1": "1 39773U 14030A   25336.78378131  .00000040  00000+0  00000+0 0  9996", "line2": "2 39773   0.0632   0.3895 0004768 226.9231 129.8290  1.00270680 42097"}}, "geometry": {"type": "Point", "coordinates": [-179.90935540598014, -0.014220355657285539]}}, {"type": "Feature", "properties": {"norad_id": 40425, "name": "EUTELSAT 115 WEST B", "group": "eutelsat", "lat": -0.006741280019892859, "lon": 62.1312553874166, "alt_km": 35784.83368598682, "timestamp": "2025-12-03T06:58:42.912672+00:00", "meta": {"OBJECT_NAME": "EUTELSAT 115 WEST B", "OBJECT_ID": "2015-010B", "EPOCH": "2025-12-02T10:37:38.767584", "MEAN_MOTION": 1.00269409, "ECCENTRICITY": 4.876e-05, "INCLINATION": 0.017, "RA_OF_ASC_NODE": 149.052, "ARG_OF_PERICENTER": 249.23, "MEAN_ANOMALY": 77.7769, "EPHEMERIS_TYPE": 0, "CLASSIFICATION_TYPE": "U", "NORAD_CAT_ID": 40425, "ELEMENT_SET_NO": 999, "REV_AT_EPOCH": 3942, "BSTAR": 0, "MEAN_MOTION_DOT": -4e-08, "MEAN_MOTION_DDOT": 0}, "tle": {"line1": "1 40425U 15010B   25336.44280981 -.00000004  00000+0  00000+0 0  9990", "line2": "2 40425   0.0170 149.0520 0000487 249.2300  77.7769  1.00269409 39427"}}, "geometry": {"type": "Point", "coordinates": [62.1312553874166, -0.006741280019892859]}}, {"type": "Feature", "properties": {"norad_id": 40875, "name": "EUTELSAT 8 WEST B", "group": "eutelsat", "lat": -0.015318005756046551, "lon": 168.99393421394737, "alt_km": 35784.68017759419, "timestamp": "2025-12-03T06:58:42.912684+00:00", "meta": {"OBJECT_NAME": "EUTELSAT 8 WEST B", "OBJECT_ID": "2015-039B", "EPOCH": "2025-12-02T17:10:16.949280", "MEAN_MOTION": 1.00271544, "ECCENTRICITY": 0.0004133, "INCLINATION": 0.066, "RA_OF_ASC_NODE": 345.7072, "ARG_OF_PERICENTER": 268.5591, "MEAN_ANOMALY": 67.1264, "EPHEMERIS_TYPE": 0, "CLASSIFICATION_TYPE": "U", "NORAD_CAT_ID": 40875, "ELEMENT_SET_NO": 999, "REV_AT_EPOCH": 3768, "BSTAR": 0, "MEAN_MOTION_DOT": -4.5e-07, "MEAN_MOTION_DDOT": 0}, "tle": {"line1": "1 40875U 15039B   25336.71547395 -.00000045  00000+0  00000+0 0  9990", "line2": "2 40875   0.0660 345.7072 0004133 268.5591  67.1264  1.00271544 37687"}}, "geometry": {"type": "Point", "coordinates": [168.99393421394737, -0.015318005756046551]}}, {"type": "Feature", "properties": {"norad_id": 41310, "name": "EUTELSAT 9B", "group": "eutelsat", "lat": 0.03346517374874102, "lon": -174.03363440437096, "alt_km": 35781.97548231427, "timestamp": "2025-12-03T06:58:42.912696+00:00", "meta": {"OBJECT_NAME": "EUTELSAT 9B", "OBJECT_ID": "2016-005A", "EPOCH": "2025-12-02T18:40:38.741952", "MEAN_MOTION": 1.0027112, "ECCENTRICITY": 0.0004873, "INCLINATION": 0.0639, "RA_OF_ASC_NODE": 74.794, "ARG_OF_PERICENTER": 189.4665, "MEAN_ANOMALY": 96.7651, "EPHEMERIS_TYPE": 0, "CLASSIFICATION_TYPE": "U", "NORAD_CAT_ID": 41310, "ELEMENT_SET_NO": 999, "REV_AT_EPOCH": 3614, "BSTAR": 0, "MEAN_MOTION_DOT": 8.2e-07, "MEAN_MOTION_DDOT": 0}, "tle": {"line1": "1 41310U 16005A   25336.77822618  .00000082  00000+0  00000+0 0  9999", "line2": "2 41310   0.0639  74.7940 0004873 189.4665  96.7651  1.00271120 36143"}}, "geometry": {"type": "Point", "coordinates": [-174.03363440437096, 0.03346517374874102]}}, {"type": "Feature", "properties": {"norad_id": 41382, "name": "EUTELSAT 65 WEST A", "group": "eutelsat", "lat": 0.04960003989472086, "lon": 111.81854973160854, "alt_km": 35795.92659663763, "timestamp": "2025-12-03T06:58:42.912707+00:00", "meta": {"OBJECT_NAME": "EUTELSAT 65 WEST A", "OBJECT_ID": "2016-014A", "EPOCH": "2025-12-02T08:20:18.826368", "MEAN_MOTION": 1.00271105, "ECCENTRICITY": 0.00027191, "INCLINATION": 0.0509, "RA_OF_ASC_NODE": 341.0284, "ARG_OF_PERICENTER": 276.9508, "MEAN_ANOMALY": 233.3555, "EPHEMERIS_TYPE": 0, "CLASSIFICATION_TYPE": "U", "NORAD_CAT_ID": 41382, "ELEMENT_SET_NO": 999, "REV_AT_EPOCH": 3556, "BSTAR": 0, "MEAN_MOTION_DOT": -2.56e-06, "MEAN_MOTION_DDOT": 0}, "tle": {"line1": "1 41382U 16014A   25336.34744012 -.00000256  00000+0  00000+0 0  9996", "line2": "2 41382   0.0509 341.0284 0002719 276.9508 233.3555  1.00271105 35564"}}, "geometry": {"type": "Point", "coordinates": [111.81854973160854, 0.04960003989472086]}}, {"type": "Feature", "properties": {"norad_id": 41589, "name": "EUTELSAT 117 WEST B", "group": "eutelsat", "lat": -0.013706036973071371, "lon": 60.03296153680952, "alt_km": 35786.47683671754, "timestamp": "2025-12-03T06:58:42.912719+00:00", "meta": {"OBJECT_NAME": "EUTELSAT 117 WEST B", "OBJECT_ID": "2016-038B", "EPOCH": "2025-12-02T10:37:38.767584", "MEAN_MOTION": 1.0026853, "ECCENTRICITY": 2.024e-05, "INCLINATION": 0.0102, "RA_OF_ASC_NODE": 144.9746, "ARG_OF_PERICENTER": 219.6495, "MEAN_ANOMALY": 109.3395, "EPHEMERIS_TYPE": 0, "CLASSIFICATION_TYPE": "U", "NORAD_CAT_ID": 41589, "ELEMENT_SET_NO": 999, "REV_AT_EPOCH": 3469, "BSTAR": 0, "MEAN_MOTION_DOT": 9e-08, "MEAN_MOTION_DDOT": 0}, "tle": {"line1": "1 41589U 16038B   25336.44280981  .00000009  00000+0  00000+0 0  9997", "line2": "2 41589   0.0102 144.9746 0000202 219.6495 109.3395  1.00268530 34694"}}, "geometry": {"type": "Point", "coordinates": [60.03296153680952, -0.013706036973071371]}}]}